RADFXSAT (FOX-1B)       
1 43017U 17073E   26068.59518419  .00011352  00000+0  51457-3 0  9993
2 43017  97.4852 297.8938 0154575 312.4525  46.3719 15.10873817450344
STARLINK-4104           
1 53163U 22083AH  26068.57258538 -.00002579  00000+0 -14407-3 0  9991
2 53163  53.2164 164.7936 0000991  89.2621 270.8484 15.08823667201343
